{
  "type": "FeatureCollection",
  "features": [
    {
      "type": "Feature",
      "properties": {
        "norad_id": 38833,
        "name": "GPS BIIF-3  (PRN 24)",
        "group": "gps-ops",
        "lat": -52.318730209893076,
        "lon": 77.75097103158603,
        "alt_km": 20562.26446378374,
        "timestamp": "2025-12-23T05:02:12.289748+00:00",
        "meta_object_name": "GPS BIIF-3  (PRN 24)",
        "meta_object_id": "2012-053A",
        "meta_epoch": "2025-12-22T07:46:34.286880",
        "meta_mean_motion": 2.0056507,
        "meta_eccentricity": 0.0176029,
        "meta_inclination": 53.5595,
        "meta_ra_of_asc_node": 150.8462,
        "meta_arg_of_pericenter": 64.1364,
        "meta_mean_anomaly": 297.6424,
        "meta_ephemeris_type": 0,
        "meta_classification_type": "U",
        "meta_norad_cat_id": 38833,
        "meta_element_set_no": 999,
        "meta_rev_at_epoch": 9589,
        "meta_bstar": 0,
        "meta_mean_motion_dot": 6.6e-07,
        "meta_mean_motion_ddot": 0,
        "tle_line1": "1 38833U 12053A   25356.32400795  .00000066  00000+0  00000+0 0  9997",
        "tle_line2": "2 38833  53.5595 150.8462 0176029  64.1364 297.6424  2.00565070 95894"
      },
      "geometry": {
        "type": "Point",
        "coordinates": [
          77.75097103158603,
          -52.318730209893076
        ]
      }
    },
    {
      "type": "Feature",
      "properties": {
        "norad_id": 39166,
        "name": "GPS BIIF-4  (PRN 27)",
        "group": "gps-ops",
        "lat": 14.690909084246016,
        "lon": -73.1510952735893,
        "alt_km": 19862.6856349301,
        "timestamp": "2025-12-23T05:02:12.289759+00:00",
        "meta_object_name": "GPS BIIF-4  (PRN 27)",
        "meta_object_id": "2013-023A",
        "meta_epoch": "2025-12-22T04:30:56.781216",
        "meta_mean_motion": 2.00564649,
        "meta_eccentricity": 0.01384833,
        "meta_inclination": 54.6439,
        "meta_ra_of_asc_node": 276.1841,
        "meta_arg_of_pericenter": 48.7288,
        "meta_mean_anomaly": 312.4984,
        "meta_ephemeris_type": 0,
        "meta_classification_type": "U",
        "meta_norad_cat_id": 39166,
        "meta_element_set_no": 999,
        "meta_rev_at_epoch": 9233,
        "meta_bstar": 0,
        "meta_mean_motion_dot": -1.5e-07,
        "meta_mean_motion_ddot": 0,
        "tle_line1": "1 39166U 13023A   25356.18815719 -.00000015  00000+0  00000+0 0  9990",
        "tle_line2": "2 39166  54.6439 276.1841 0138483  48.7288 312.4984  2.00564649 92335"
      },
      "geometry": {
        "type": "Point",
        "coordinates": [
          -73.1510952735893,
          14.690909084246016
        ]
      }
    },
    {
      "type": "Feature",
      "properties": {
        "norad_id": 39533,
        "name": "GPS BIIF-5  (PRN 30)",
        "group": "gps-ops",
        "lat": 17.298341550128246,
        "lon": 169.7895831154041,
        "alt_km": 20373.417969775655,
        "timestamp": "2025-12-23T05:02:12.289770+00:00",
        "meta_object_name": "GPS BIIF-5  (PRN 30)",
        "meta_object_id": "2014-008A",
        "meta_epoch": "2025-12-20T16:28:24.690432",
        "meta_mean_motion": 2.00548724,
        "meta_eccentricity": 0.00795742,
        "meta_inclination": 53.6246,
        "meta_ra_of_asc_node": 156.6308,
        "meta_arg_of_pericenter": 226.1122,
        "meta_mean_anomaly": 133.2164,
        "meta_ephemeris_type": 0,
        "meta_classification_type": "U",
        "meta_norad_cat_id": 39533,
        "meta_element_set_no": 999,
        "meta_rev_at_epoch": 8610,
        "meta_bstar": 0,
        "meta_mean_motion_dot": 6.5e-07,
        "meta_mean_motion_ddot": 0,
        "tle_line1": "1 39533U 14008A   25354.68639688  .00000065  00000+0  00000+0 0  9998",
        "tle_line2": "2 39533  53.6246 156.6308 0079574 226.1122 133.2164  2.00548724 86105"
      },
      "geometry": {
        "type": "Point",
        "coordinates": [
          169.7895831154041,
          17.298341550128246
        ]
      }
    },
    {
      "type": "Feature",
      "properties": {
        "norad_id": 39741,
        "name": "GPS BIIF-6  (PRN 06)",
        "group": "gps-ops",
        "lat": 2.6520178254750317,
        "lon": 156.60301673604854,
        "alt_km": 20265.25107608795,
        "timestamp": "2025-12-23T05:02:12.289781+00:00",
        "meta_object_name": "GPS BIIF-6  (PRN 06)",
        "meta_object_id": "2014-026A",
        "meta_epoch": "2025-12-21T23:12:34.799616",
        "meta_mean_motion": 2.00560759,
        "meta_eccentricity": 0.00394103,
        "meta_inclination": 56.58,
        "meta_ra_of_asc_node": 338.4177,
        "meta_arg_of_pericenter": 319.2097,
        "meta_mean_anomaly": 40.4995,
        "meta_ephemeris_type": 0,
        "meta_classification_type": "U",
        "meta_norad_cat_id": 39741,
        "meta_element_set_no": 999,
        "meta_rev_at_epoch": 8498,
        "meta_bstar": 0,
        "meta_mean_motion_dot": -6.8e-07,
        "meta_mean_motion_ddot": 0,
        "tle_line1": "1 39741U 14026A   25355.96706944 -.00000068  00000+0  00000+0 0  9995",
        "tle_line2": "2 39741  56.5800 338.4177 0039410 319.2097  40.4995  2.00560759 84985"
      },
      "geometry": {
        "type": "Point",
        "coordinates": [
          156.60301673604854,
          2.6520178254750317
        ]
      }
    },
    {
      "type": "Feature",
      "properties": {
        "norad_id": 40105,
        "name": "GPS BIIF-7  (PRN 09)",
        "group": "gps-ops",
        "lat": 48.160812266566886,
        "lon": -135.28292851016218,
        "alt_km": 20089.92998764435,
        "timestamp": "2025-12-23T05:02:12.289793+00:00",
        "meta_object_name": "GPS BIIF-7  (PRN 09)",
        "meta_object_id": "2014-045A",
        "meta_epoch": "2025-12-22T01:17:45.580992",
        "meta_mean_motion": 2.00573157,
        "meta_eccentricity": 0.00324364,
        "meta_inclination": 55.2345,
        "meta_ra_of_asc_node": 95.5273,
        "meta_arg_of_pericenter": 120.1369,
        "meta_mean_anomaly": 240.1873,
        "meta_ephemeris_type": 0,
        "meta_classification_type": "U",
        "meta_norad_cat_id": 40105,
        "meta_element_set_no": 999,
        "meta_rev_at_epoch": 8252,
        "meta_bstar": 0,
        "meta_mean_motion_dot": -3e-08,
        "meta_mean_motion_ddot": 0,
        "tle_line1": "1 40105U 14045A   25356.05399978 -.00000003  00000+0  00000+0 0  9997",
        "tle_line2": "2 40105  55.2345  95.5273 0032436 120.1369 240.1873  2.00573157 82529"
      },
      "geometry": {
        "type": "Point",
        "coordinates": [
          -135.28292851016218,
          48.160812266566886
        ]
      }
    },
    {
      "type": "Feature",
      "properties": {
        "norad_id": 40294,
        "name": "GPS BIIF-8  (PRN 03)",
        "group": "gps-ops",
        "lat": -19.641105965224263,
        "lon": -128.76682854605173,
        "alt_km": 20297.982214707667,
        "timestamp": "2025-12-23T05:02:12.289804+00:00",
        "meta_object_name": "GPS BIIF-8  (PRN 03)",
        "meta_object_id": "2014-068A",
        "meta_epoch": "2025-12-21T10:24:33.832224",
        "meta_mean_motion": 2.00565456,
        "meta_eccentricity": 0.00608151,
        "meta_inclination": 56.8641,
        "meta_ra_of_asc_node": 37.8098,
        "meta_arg_of_pericenter": 69.0115,
        "meta_mean_anomaly": 291.7086,
        "meta_ephemeris_type": 0,
        "meta_classification_type": "U",
        "meta_norad_cat_id": 40294,
        "meta_element_set_no": 999,
        "meta_rev_at_epoch": 8164,
        "meta_bstar": 0,
        "meta_mean_motion_dot": -5.2e-07,
        "meta_mean_motion_ddot": 0,
        "tle_line1": "1 40294U 14068A   25355.43372491 -.00000052  00000+0  00000+0 0  9997",
        "tle_line2": "2 40294  56.8641  37.8098 0060815  69.0115 291.7086  2.00565456 81643"
      },
      "geometry": {
        "type": "Point",
        "coordinates": [
          -128.76682854605173,
          -19.641105965224263
        ]
      }
    },
    {
      "type": "Feature",
      "properties": {
        "norad_id": 40534,
        "name": "GPS BIIF-9  (PRN 26)",
        "group": "gps-ops",
        "lat": 48.51823280909857,
        "lon": -26.402689843664838,
        "alt_km": 20084.706798151255,
        "timestamp": "2025-12-23T05:02:12.289815+00:00",
        "meta_object_name": "GPS BIIF-9  (PRN 26)",
        "meta_object_id": "2015-013A",
        "meta_epoch": "2025-12-22T13:27:33.794784",
        "meta_mean_motion": 2.00561992,
        "meta_eccentricity": 0.01074276,
        "meta_inclination": 53.1964,
        "meta_ra_of_asc_node": 211.4834,
        "meta_arg_of_pericenter": 38.7225,
        "meta_mean_anomaly": 322.126,
        "meta_ephemeris_type": 0,
        "meta_classification_type": "U",
        "meta_norad_cat_id": 40534,
        "meta_element_set_no": 999,
        "meta_rev_at_epoch": 7828,
        "meta_bstar": 0,
        "meta_mean_motion_dot": 7.5e-07,
        "meta_mean_motion_ddot": 0,
        "tle_line1": "1 40534U 15013A   25356.56080781  .00000075  00000+0  00000+0 0  9992",
        "tle_line2": "2 40534  53.1964 211.4834 0107427  38.7225 322.1260  2.00561992 78282"
      },
      "geometry": {
        "type": "Point",
        "coordinates": [
          -26.402689843664838,
          48.51823280909857
        ]
      }
    }
  ]
}